STARLINK-3129           
1 49453U 21104AX  26068.68069416 -.00000787  00000+0 -31337-4 0  9999
2 49453  53.2176 219.2491 0001133  81.7118 278.4002 15.08844076238776
DISKSAT B               
1 67220U 25305B   26068.81497770  .00012481  00000+0  82401-3 0  9990
2 67220  45.0018 250.2098 0003783 311.4052  48.6498 15.07484556 12311
